STARLINK-5262           
1 54207U 22141BC  26068.09502373 -.00000984  00000+0 -43736-4 0  9998
2 54207  53.2185 356.3971 0001270 107.8011 252.3120 15.08831755185918
LEMUR-2-STELLA          
1 60533U 24149BT  26068.72657350  .00013685  00000+0  85776-3 0  9992
2 60533  97.6764 150.9122 0001299  95.1117 265.0260 15.09464064 85488
